[
    {
        "OBJECT_NAME": "SL-14 R/B",
        "OBJECT_ID": "1987-024B",
        "EPOCH": "2026-06-13T15:34:48.480672",
        "MEAN_MOTION": 14.86211203,
        "ECCENTRICITY": 0.0016954,
        "INCLINATION": 82.5281,
        "RA_OF_ASC_NODE": 2.5765,
        "ARG_OF_PERICENTER": 305.9154,
        "MEAN_ANOMALY": 54.0488,
        "EPHEMERIS_TYPE": 0,
        "CLASSIFICATION_TYPE": "U",
        "NORAD_CAT_ID": 17567,
        "ELEMENT_SET_NO": 999,
        "REV_AT_EPOCH": 10238,
        "BSTAR": 3.9278e-05,
        "MEAN_MOTION_DOT": 3.7e-06,
        "MEAN_MOTION_DDOT": 0
    },
    {
        "OBJECT_NAME": "COSMOS 1833",
        "OBJECT_ID": "1987-027A",
        "EPOCH": "2026-06-13T15:21:01.184256",
        "MEAN_MOTION": 14.13047341,
        "ECCENTRICITY": 0.0022712,
        "INCLINATION": 70.9172,
        "RA_OF_ASC_NODE": 124.325,
        "ARG_OF_PERICENTER": 61.0366,
        "MEAN_ANOMALY": 299.3028,
        "EPHEMERIS_TYPE": 0,
        "CLASSIFICATION_TYPE": "U",
        "NORAD_CAT_ID": 17589,
        "ELEMENT_SET_NO": 999,
        "REV_AT_EPOCH": 2387,
        "BSTAR": 0.00019231,
        "MEAN_MOTION_DOT": 3.12e-06,
        "MEAN_MOTION_DDOT": 0
    },
    {
        "OBJECT_NAME": "SL-16 R/B",
        "OBJECT_ID": "1987-027B",
        "EPOCH": "2026-06-13T19:52:26.190624",
        "MEAN_MOTION": 14.171726,
        "ECCENTRICITY": 0.0006396,
        "INCLINATION": 71.0034,
        "RA_OF_ASC_NODE": 73.907,
        "ARG_OF_PERICENTER": 316.1608,
        "MEAN_ANOMALY": 43.9008,
        "EPHEMERIS_TYPE": 0,
        "CLASSIFICATION_TYPE": "U",
        "NORAD_CAT_ID": 17590,
        "ELEMENT_SET_NO": 999,
        "REV_AT_EPOCH": 2896,
        "BSTAR": -4.9694e-05,
        "MEAN_MOTION_DOT": -1.48e-06,
        "MEAN_MOTION_DDOT": 0
    },
    {
        "OBJECT_NAME": "SL-14 R/B",
        "OBJECT_ID": "1987-038B",
        "EPOCH": "2026-06-13T19:52:35.264352",
        "MEAN_MOTION": 14.8544338,
        "ECCENTRICITY": 0.0018585,
        "INCLINATION": 82.501,
        "RA_OF_ASC_NODE": 206.2363,
        "ARG_OF_PERICENTER": 202.5373,
        "MEAN_ANOMALY": 157.5029,
        "EPHEMERIS_TYPE": 0,
        "CLASSIFICATION_TYPE": "U",
        "NORAD_CAT_ID": 17912,
        "ELEMENT_SET_NO": 999,
        "REV_AT_EPOCH": 9350,
        "BSTAR": 3.3331e-05,
        "MEAN_MOTION_DOT": 3.12e-06,
        "MEAN_MOTION_DDOT": 0
    },
    {
        "OBJECT_NAME": "COSMOS 1844",
        "OBJECT_ID": "1987-041A",
        "EPOCH": "2026-06-13T12:01:01.515072",
        "MEAN_MOTION": 14.14568796,
        "ECCENTRICITY": 0.00330696,
        "INCLINATION": 70.8974,
        "RA_OF_ASC_NODE": 192.0836,
        "ARG_OF_PERICENTER": 240.9035,
        "MEAN_ANOMALY": 118.8775,
        "EPHEMERIS_TYPE": 0,
        "CLASSIFICATION_TYPE": "U",
        "NORAD_CAT_ID": 17973,
        "ELEMENT_SET_NO": 999,
        "REV_AT_EPOCH": 1713,
        "BSTAR": -5.8438192e-05,
        "MEAN_MOTION_DOT": -1.61e-06,
        "MEAN_MOTION_DDOT": 0
    },
    {
        "OBJECT_NAME": "SL-14 R/B",
        "OBJECT_ID": "1987-055B",
        "EPOCH": "2026-06-13T17:18:09.176256",
        "MEAN_MOTION": 14.85708984,
        "ECCENTRICITY": 0.0021897,
        "INCLINATION": 82.4995,
        "RA_OF_ASC_NODE": 258.4964,
        "ARG_OF_PERICENTER": 58.5013,
        "MEAN_ANOMALY": 301.8339,
        "EPHEMERIS_TYPE": 0,
        "CLASSIFICATION_TYPE": "U",
        "NORAD_CAT_ID": 18153,
        "ELEMENT_SET_NO": 999,
        "REV_AT_EPOCH": 8419,
        "BSTAR": 4.0752e-05,
        "MEAN_MOTION_DOT": 3.8e-06,
        "MEAN_MOTION_DDOT": 0
    },
    {
        "OBJECT_NAME": "COSMOS 1867",
        "OBJECT_ID": "1987-060A",
        "EPOCH": "2026-06-13T20:23:39.498144",
        "MEAN_MOTION": 14.31515481,
        "ECCENTRICITY": 0.0016443,
        "INCLINATION": 65.0116,
        "RA_OF_ASC_NODE": 37.4055,
        "ARG_OF_PERICENTER": 282.0907,
        "MEAN_ANOMALY": 77.8334,
        "EPHEMERIS_TYPE": 0,
        "CLASSIFICATION_TYPE": "U",
        "NORAD_CAT_ID": 18187,
        "ELEMENT_SET_NO": 999,
        "REV_AT_EPOCH": 3370,
        "BSTAR": 2.6673e-05,
        "MEAN_MOTION_DOT": -2.9e-07,
        "MEAN_MOTION_DDOT": 0
    },
    {
        "OBJECT_NAME": "SL-14 R/B",
        "OBJECT_ID": "1988-001B",
        "EPOCH": "2026-06-13T20:34:40.187712",
        "MEAN_MOTION": 14.85607564,
        "ECCENTRICITY": 0.0016476,
        "INCLINATION": 82.5131,
        "RA_OF_ASC_NODE": 104.9061,
        "ARG_OF_PERICENTER": 281.6371,
        "MEAN_ANOMALY": 78.2996,
        "EPHEMERIS_TYPE": 0,
        "CLASSIFICATION_TYPE": "U",
        "NORAD_CAT_ID": 18749,
        "ELEMENT_SET_NO": 999,
        "REV_AT_EPOCH": 5630,
        "BSTAR": 4.2224e-05,
        "MEAN_MOTION_DOT": 3.9e-06,
        "MEAN_MOTION_DDOT": 0
    },
    {
        "OBJECT_NAME": "COSMOS 1933",
        "OBJECT_ID": "1988-020A",
        "EPOCH": "2026-06-13T11:30:35.817408",
        "MEAN_MOTION": 15.18690741,
        "ECCENTRICITY": 0.00030646,
        "INCLINATION": 82.5115,
        "RA_OF_ASC_NODE": 156.1064,
        "ARG_OF_PERICENTER": 199.9562,
        "MEAN_ANOMALY": 160.1553,
        "EPHEMERIS_TYPE": 0,
        "CLASSIFICATION_TYPE": "U",
        "NORAD_CAT_ID": 18958,
        "ELEMENT_SET_NO": 999,
        "REV_AT_EPOCH": 6476,
        "BSTAR": 0.00015345971,
        "MEAN_MOTION_DOT": 3.212e-05,
        "MEAN_MOTION_DDOT": 0
    },
    {
        "OBJECT_NAME": "SL-3 R/B",
        "OBJECT_ID": "1988-032B",
        "EPOCH": "2026-06-13T21:18:04.044384",
        "MEAN_MOTION": 15.20818407,
        "ECCENTRICITY": 0.0023696,
        "INCLINATION": 97.5247,
        "RA_OF_ASC_NODE": 147.9316,
        "ARG_OF_PERICENTER": 257.3699,
        "MEAN_ANOMALY": 102.4886,
        "EPHEMERIS_TYPE": 0,
        "CLASSIFICATION_TYPE": "U",
        "NORAD_CAT_ID": 19046,
        "ELEMENT_SET_NO": 999,
        "REV_AT_EPOCH": 6672,
        "BSTAR": 0.00019661,
        "MEAN_MOTION_DOT": 4.296e-05,
        "MEAN_MOTION_DDOT": 0
    },
    {
        "OBJECT_NAME": "SL-16 R/B",
        "OBJECT_ID": "1988-039B",
        "EPOCH": "2026-06-13T14:20:45.607776",
        "MEAN_MOTION": 14.19629506,
        "ECCENTRICITY": 0.0022478,
        "INCLINATION": 71.0141,
        "RA_OF_ASC_NODE": 225.7482,
        "ARG_OF_PERICENTER": 198.4699,
        "MEAN_ANOMALY": 161.5613,
        "EPHEMERIS_TYPE": 0,
        "CLASSIFICATION_TYPE": "U",
        "NORAD_CAT_ID": 19120,
        "ELEMENT_SET_NO": 999,
        "REV_AT_EPOCH": 97199,
        "BSTAR": -3.3505e-05,
        "MEAN_MOTION_DOT": -1.19e-06,
        "MEAN_MOTION_DDOT": 0
    },
    {
        "OBJECT_NAME": "COSMOS 1953",
        "OBJECT_ID": "1988-050A",
        "EPOCH": "2026-06-13T17:57:56.550816",
        "MEAN_MOTION": 15.29934125,
        "ECCENTRICITY": 0.0011913,
        "INCLINATION": 82.5086,
        "RA_OF_ASC_NODE": 61.5019,
        "ARG_OF_PERICENTER": 136.8086,
        "MEAN_ANOMALY": 223.4091,
        "EPHEMERIS_TYPE": 0,
        "CLASSIFICATION_TYPE": "U",
        "NORAD_CAT_ID": 19210,
        "ELEMENT_SET_NO": 999,
        "REV_AT_EPOCH": 5246,
        "BSTAR": 0.00026791,
        "MEAN_MOTION_DOT": 7.812e-05,
        "MEAN_MOTION_DDOT": 0
    },
    {
        "OBJECT_NAME": "SL-8 R/B",
        "OBJECT_ID": "1988-053B",
        "EPOCH": "2026-06-13T19:36:53.443008",
        "MEAN_MOTION": 14.3896627,
        "ECCENTRICITY": 0.0019169,
        "INCLINATION": 74.0479,
        "RA_OF_ASC_NODE": 295.2692,
        "ARG_OF_PERICENTER": 91.8353,
        "MEAN_ANOMALY": 19.6817,
        "EPHEMERIS_TYPE": 0,
        "CLASSIFICATION_TYPE": "U",
        "NORAD_CAT_ID": 19257,
        "ELEMENT_SET_NO": 999,
        "REV_AT_EPOCH": 99042,
        "BSTAR": 5.8194e-05,
        "MEAN_MOTION_DOT": 1.54e-06,
        "MEAN_MOTION_DDOT": 0
    }
]