SL-14 R/B               
1 17567U 87024B   26164.64917223  .00000370  00000+0  39278-4 0  9992
2 17567  82.5281   2.5765 0016954 305.9154  54.0488 14.86211203102382
COSMOS 1833             
1 17589U 87027A   26164.63959704  .00000312  00000+0  19231-3 0  9990
2 17589  70.9172 124.3250 0022712  61.0366 299.3028 14.13047341 23872
SL-16 R/B               
1 17590U 87027B   26164.82808091 -.00000148  00000+0 -49694-4 0  9991
2 17590  71.0034  73.9070 0006396 316.1608  43.9008 14.17172600 28962
SL-14 R/B               
1 17912U 87038B   26164.82818593  .00000312  00000+0  33331-4 0  9991
2 17912  82.5010 206.2363 0018585 202.5373 157.5029 14.85443380 93505
COSMOS 1844             
1 17973U 87041A   26164.50071198 -.00000161  00000+0 -58438-4 0  9998
2 17973  70.8974 192.0836 0033069 240.9035 118.8775 14.14568796 17137
SL-14 R/B               
1 18153U 87055B   26164.72093954  .00000380  00000+0  40752-4 0  9993
2 18153  82.4995 258.4964 0021897  58.5013 301.8339 14.85708984 84197
COSMOS 1867             
1 18187U 87060A   26164.84976271 -.00000029  00000+0  26673-4 0  9998
2 18187  65.0116  37.4055 0016443 282.0907  77.8334 14.31515481 33704
SL-14 R/B               
1 18749U 88001B   26164.85740958  .00000390  00000+0  42224-4 0  9990
2 18749  82.5131 104.9061 0016476 281.6371  78.2996 14.85607564 56305
COSMOS 1933             
1 18958U 88020A   26164.47958122  .00003212  00000+0  15346-3 0  9995
2 18958  82.5115 156.1064 0003064 199.9562 160.1553 15.18690741 64768
SL-3 R/B                
1 19046U 88032B   26164.88754681  .00004296  00000+0  19661-3 0  9993
2 19046  97.5247 147.9316 0023696 257.3699 102.4886 15.20818407 66720
SL-16 R/B               
1 19120U 88039B   26164.59775009 -.00000119  00000+0 -33505-4 0  9994
2 19120  71.0141 225.7482 0022478 198.4699 161.5613 14.19629506971999
COSMOS 1953             
1 19210U 88050A   26164.74857119  .00007812  00000+0  26791-3 0  9990
2 19210  82.5086  61.5019 0011913 136.8086 223.4091 15.29934125 52462
SL-8 R/B                
1 19257U 88053B   26164.81728522  .00000154  00000+0  58194-4 0  9992
2 19257  74.0479 295.2692 0019169  91.8353  19.6817 14.38966270990429
